[{"OBJECT_NAME":"KUIPER-00096","OBJECT_ID":"2025-171D","EPOCH":"2026-03-04T11:27:42.831648","MEAN_MOTION":14.79948444,"ECCENTRICITY":3.031e-5,"INCLINATION":51.9008,"RA_OF_ASC_NODE":181.1315,"ARG_OF_PERICENTER":129.3928,"MEAN_ANOMALY":230.7061,"EPHEMERIS_TYPE":0,"CLASSIFICATION_TYPE":"U","NORAD_CAT_ID":65135,"ELEMENT_SET_NO":999,"REV_AT_EPOCH":3212,"BSTAR":0.00093134547,"MEAN_MOTION_DOT":6.889e-5,"MEAN_MOTION_DDOT":0},{"OBJECT_NAME":"KUIPER-00097","OBJECT_ID":"2025-171E","EPOCH":"2026-03-04T11:23:50.558208","MEAN_MOTION":14.7993973,"ECCENTRICITY":3.253e-5,"INCLINATION":51.9018,"RA_OF_ASC_NODE":183.7697,"ARG_OF_PERICENTER":83.292,"MEAN_ANOMALY":276.8079,"EPHEMERIS_TYPE":0,"CLASSIFICATION_TYPE":"U","NORAD_CAT_ID":65136,"ELEMENT_SET_NO":999,"REV_AT_EPOCH":3207,"BSTAR":0.0011820104,"MEAN_MOTION_DOT":8.803e-5,"MEAN_MOTION_DDOT":0},{"OBJECT_NAME":"KUIPER-00098","OBJECT_ID":"2025-171F","EPOCH":"2026-03-03T14:15:48.128256","MEAN_MOTION":14.799526,"ECCENTRICITY":0.0001917,"INCLINATION":51.9007,"RA_OF_ASC_NODE":190.0409,"ARG_OF_PERICENTER":141.334,"MEAN_ANOMALY":218.776,"EPHEMERIS_TYPE":0,"CLASSIFICATION_TYPE":"U","NORAD_CAT_ID":65137,"ELEMENT_SET_NO":999,"REV_AT_EPOCH":3126,"BSTAR":0.00088989,"MEAN_MOTION_DOT":6.572e-5,"MEAN_MOTION_DDOT":0},{"OBJECT_NAME":"KUIPER-00099","OBJECT_ID":"2025-171G","EPOCH":"2026-03-04T12:25:17.266944","MEAN_MOTION":14.7986215,"ECCENTRICITY":5.507e-5,"INCLINATION":51.9025,"RA_OF_ASC_NODE":175.9506,"ARG_OF_PERICENTER":45.1003,"MEAN_ANOMALY":315.0004,"EPHEMERIS_TYPE":0,"CLASSIFICATION_TYPE":"U","NORAD_CAT_ID":65138,"ELEMENT_SET_NO":999,"REV_AT_EPOCH":3219,"BSTAR":0.0010703601,"MEAN_MOTION_DOT":7.935e-5,"MEAN_MOTION_DDOT":0},{"OBJECT_NAME":"KUIPER-00100","OBJECT_ID":"2025-171H","EPOCH":"2026-03-04T11:39:21.788640","MEAN_MOTION":14.79946434,"ECCENTRICITY":4.889e-5,"INCLINATION":51.9016,"RA_OF_ASC_NODE":173.563,"ARG_OF_PERICENTER":96.6064,"MEAN_ANOMALY":263.4954,"EPHEMERIS_TYPE":0,"CLASSIFICATION_TYPE":"U","NORAD_CAT_ID":65139,"ELEMENT_SET_NO":999,"REV_AT_EPOCH":3222,"BSTAR":0.00062281469,"MEAN_MOTION_DOT":4.532e-5,"MEAN_MOTION_DDOT":0},{"OBJECT_NAME":"KUIPER-00102","OBJECT_ID":"2025-171J","EPOCH":"2026-03-04T11:35:23.783424","MEAN_MOTION":14.7998214,"ECCENTRICITY":5.595e-5,"INCLINATION":51.8988,"RA_OF_ASC_NODE":176.1019,"ARG_OF_PERICENTER":84.2222,"MEAN_ANOMALY":275.8805,"EPHEMERIS_TYPE":0,"CLASSIFICATION_TYPE":"U","NORAD_CAT_ID":65140,"ELEMENT_SET_NO":999,"REV_AT_EPOCH":3218,"BSTAR":0.0011394992,"MEAN_MOTION_DOT":8.487e-5,"MEAN_MOTION_DDOT":0},{"OBJECT_NAME":"KUIPER-00103","OBJECT_ID":"2025-171K","EPOCH":"2026-03-03T14:52:49.150848","MEAN_MOTION":14.79980418,"ECCENTRICITY":0.0002193,"INCLINATION":51.8989,"RA_OF_ASC_NODE":197.4104,"ARG_OF_PERICENTER":125.2704,"MEAN_ANOMALY":234.8464,"EPHEMERIS_TYPE":0,"CLASSIFICATION_TYPE":"U","NORAD_CAT_ID":65141,"ELEMENT_SET_NO":999,"REV_AT_EPOCH":3181,"BSTAR":0.00080767,"MEAN_MOTION_DOT":5.948e-5,"MEAN_MOTION_DDOT":0},{"OBJECT_NAME":"KUIPER-00104","OBJECT_ID":"2025-171L","EPOCH":"2026-03-04T12:16:13.683072","MEAN_MOTION":14.79902268,"ECCENTRICITY":7.123e-5,"INCLINATION":51.9012,"RA_OF_ASC_NODE":180.9295,"ARG_OF_PERICENTER":54.7959,"MEAN_ANOMALY":305.307,"EPHEMERIS_TYPE":0,"CLASSIFICATION_TYPE":"U","NORAD_CAT_ID":65142,"ELEMENT_SET_NO":999,"REV_AT_EPOCH":3212,"BSTAR":0.00026111377,"MEAN_MOTION_DOT":1.769e-5,"MEAN_MOTION_DDOT":0},{"OBJECT_NAME":"KUIPER-00105","OBJECT_ID":"2025-171M","EPOCH":"2026-03-04T08:01:03.381888","MEAN_MOTION":14.79893247,"ECCENTRICITY":0.00010134,"INCLINATION":51.8998,"RA_OF_ASC_NODE":189.3316,"ARG_OF_PERICENTER":96.304,"MEAN_ANOMALY":263.8038,"EPHEMERIS_TYPE":0,"CLASSIFICATION_TYPE":"U","NORAD_CAT_ID":65143,"ELEMENT_SET_NO":999,"REV_AT_EPOCH":3199,"BSTAR":-0.0050911745,"MEAN_MOTION_DOT":-0.00038773,"MEAN_MOTION_DDOT":0},{"OBJECT_NAME":"KUIPER-00106","OBJECT_ID":"2025-171N","EPOCH":"2026-03-04T12:05:12.407712","MEAN_MOTION":14.97149195,"ECCENTRICITY":0.0007926,"INCLINATION":51.894,"RA_OF_ASC_NODE":178.5372,"ARG_OF_PERICENTER":83.1033,"MEAN_ANOMALY":277.0838,"EPHEMERIS_TYPE":0,"CLASSIFICATION_TYPE":"U","NORAD_CAT_ID":65144,"ELEMENT_SET_NO":999,"REV_AT_EPOCH":3216,"BSTAR":0.00092140047,"MEAN_MOTION_DOT":0.0001052,"MEAN_MOTION_DDOT":0},{"OBJECT_NAME":"KUIPER-00107","OBJECT_ID":"2025-171P","EPOCH":"2026-03-04T11:43:20.875584","MEAN_MOTION":14.79988999,"ECCENTRICITY":3.289e-5,"INCLINATION":51.8998,"RA_OF_ASC_NODE":171.0921,"ARG_OF_PERICENTER":33.6691,"MEAN_ANOMALY":326.4292,"EPHEMERIS_TYPE":0,"CLASSIFICATION_TYPE":"U","NORAD_CAT_ID":65145,"ELEMENT_SET_NO":999,"REV_AT_EPOCH":3226,"BSTAR":0.0012206574,"MEAN_MOTION_DOT":9.109e-5,"MEAN_MOTION_DDOT":0},{"OBJECT_NAME":"KUIPER-00108","OBJECT_ID":"2025-171Q","EPOCH":"2026-03-04T12:12:27.959616","MEAN_MOTION":14.79941501,"ECCENTRICITY":0.00013983,"INCLINATION":51.9036,"RA_OF_ASC_NODE":183.5183,"ARG_OF_PERICENTER":155.7205,"MEAN_ANOMALY":204.3823,"EPHEMERIS_TYPE":0,"CLASSIFICATION_TYPE":"U","NORAD_CAT_ID":65146,"ELEMENT_SET_NO":999,"REV_AT_EPOCH":3209,"BSTAR":-0.00021097842,"MEAN_MOTION_DOT":-1.83e-5,"MEAN_MOTION_DDOT":0},{"OBJECT_NAME":"KUIPER-00109","OBJECT_ID":"2025-171R","EPOCH":"2026-03-04T11:31:35.820480","MEAN_MOTION":14.79943613,"ECCENTRICITY":5.632e-5,"INCLINATION":51.9019,"RA_OF_ASC_NODE":178.5855,"ARG_OF_PERICENTER":88.7728,"MEAN_ANOMALY":271.3299,"EPHEMERIS_TYPE":0,"CLASSIFICATION_TYPE":"U","NORAD_CAT_ID":65147,"ELEMENT_SET_NO":999,"REV_AT_EPOCH":3215,"BSTAR":0.00067643217,"MEAN_MOTION_DOT":4.941e-5,"MEAN_MOTION_DDOT":0},{"OBJECT_NAME":"KUIPER-00110","OBJECT_ID":"2025-171S","EPOCH":"2026-03-04T12:02:22.423488","MEAN_MOTION":14.79920481,"ECCENTRICITY":0.0001869,"INCLINATION":51.9011,"RA_OF_ASC_NODE":191.0902,"ARG_OF_PERICENTER":174.8095,"MEAN_ANOMALY":185.2887,"EPHEMERIS_TYPE":0,"CLASSIFICATION_TYPE":"U","NORAD_CAT_ID":65148,"ELEMENT_SET_NO":999,"REV_AT_EPOCH":3197,"BSTAR":0.001128393,"MEAN_MOTION_DOT":8.389e-5,"MEAN_MOTION_DDOT":0},{"OBJECT_NAME":"KUIPER-00111","OBJECT_ID":"2025-171T","EPOCH":"2026-03-04T12:41:24.268704","MEAN_MOTION":14.80011008,"ECCENTRICITY":0.00018606,"INCLINATION":51.8984,"RA_OF_ASC_NODE":195.8687,"ARG_OF_PERICENTER":138.5414,"MEAN_ANOMALY":221.569,"EPHEMERIS_TYPE":0,"CLASSIFICATION_TYPE":"U","NORAD_CAT_ID":65149,"ELEMENT_SET_NO":999,"REV_AT_EPOCH":3191,"BSTAR":0.0009851865,"MEAN_MOTION_DOT":7.311e-5,"MEAN_MOTION_DDOT":0},{"OBJECT_NAME":"KUIPER-00112","OBJECT_ID":"2025-171U","EPOCH":"2026-03-04T12:20:18.208896","MEAN_MOTION":14.79987841,"ECCENTRICITY":3.189e-5,"INCLINATION":51.9033,"RA_OF_ASC_NODE":178.4917,"ARG_OF_PERICENTER":100.3946,"MEAN_ANOMALY":259.7052,"EPHEMERIS_TYPE":0,"CLASSIFICATION_TYPE":"U","NORAD_CAT_ID":65150,"ELEMENT_SET_NO":999,"REV_AT_EPOCH":3215,"BSTAR":0.00096024877,"MEAN_MOTION_DOT":7.116e-5,"MEAN_MOTION_DDOT":0},{"OBJECT_NAME":"KUIPER-00114","OBJECT_ID":"2025-171V","EPOCH":"2026-03-04T12:37:46.570944","MEAN_MOTION":14.79958309,"ECCENTRICITY":0.00012912,"INCLINATION":51.9013,"RA_OF_ASC_NODE":198.4363,"ARG_OF_PERICENTER":130.4015,"MEAN_ANOMALY":229.706,"EPHEMERIS_TYPE":0,"CLASSIFICATION_TYPE":"U","NORAD_CAT_ID":65151,"ELEMENT_SET_NO":999,"REV_AT_EPOCH":3187,"BSTAR":0.0010308168,"MEAN_MOTION_DOT":7.651e-5,"MEAN_MOTION_DDOT":0}]
